[{"OBJECT_NAME":"STARLINK-34546","OBJECT_ID":"2025-142Y","EPOCH":"2026-03-09T22:44:53.642112","MEAN_MOTION":14.98327234,"ECCENTRICITY":0.00023811,"INCLINATION":70.0017,"RA_OF_ASC_NODE":313.6364,"ARG_OF_PERICENTER":265.7036,"MEAN_ANOMALY":94.3851,"EPHEMERIS_TYPE":0,"CLASSIFICATION_TYPE":"U","NORAD_CAT_ID":64718,"ELEMENT_SET_NO":999,"REV_AT_EPOCH":3969,"BSTAR":0.00011740333,"MEAN_MOTION_DOT":1.308e-5,"MEAN_MOTION_DDOT":0},{"OBJECT_NAME":"NOAA 16 DEB","OBJECT_ID":"2000-055HK","EPOCH":"2026-03-09T11:22:55.184448","MEAN_MOTION":14.96713123,"ECCENTRICITY":0.00044813,"INCLINATION":98.9091,"RA_OF_ASC_NODE":257.3123,"ARG_OF_PERICENTER":226.904,"MEAN_ANOMALY":133.1803,"EPHEMERIS_TYPE":0,"CLASSIFICATION_TYPE":"U","NORAD_CAT_ID":41307,"ELEMENT_SET_NO":999,"REV_AT_EPOCH":53055,"BSTAR":0.0073865996,"MEAN_MOTION_DOT":0.00085329,"MEAN_MOTION_DDOT":0}]
